NORAD_CAT_ID,OBJECT_NAME,OBJECT_TYPE,EPOCH,MEAN_MOTION,ECCENTRICITY,INCLINATION,RA_OF_ASC_NODE,ARG_OF_PERICENTER,MEAN_ANOMALY,BSTAR,MEAN_MOTION_DOT,MEAN_MOTION_DDOT,TLE_LINE0,TLE_LINE1,TLE_LINE2,SEMIMAJOR_AXIS,PERIOD,APOGEE,PERIGEE,DECAYED
55637.0,STARLINK-5062,PAYLOAD,2024-01-23 21:43:55,14.98344216,0.0003015,70.0004,340.5988,270.2398,89.8416,0.00011214,1.246e-05,0.0,0 STARLINK-5062,1 55637U 23021K   24023.90549931  .00001246  00000-0  11214-3 0  9990,2 55637  70.0004 340.5988 0003015 270.2398  89.8416 14.98344216 52584,6950.149,96.106,574.109,569.918,0.0
55637.0,STARLINK-5062,PAYLOAD,2024-01-24 02:32:17,14.9835858,0.0002713,70.0017,340.094,272.1751,87.9098,0.00031896,3.718e-05,0.0,0 STARLINK-5062,1 55637U 23021K   24024.10576316  .00003718  00000-0  31896-3 0  9994,2 55637  70.0017 340.0940 0002713 272.1751  87.9098 14.98358580 52314,6950.105,96.105,573.855,570.084,0.0
55637.0,STARLINK-5062,PAYLOAD,2024-01-24 07:20:45,14.98319081,0.0002659,70.0017,339.5886,271.5989,88.4865,-0.00011978,-1.521e-05,0.0,0 STARLINK-5062,1 55637U 23021K   24024.30607785 -.00001521  00000-0 -11978-3 0  9992,2 55637  70.0017 339.5886 0002659 271.5989  88.4865 14.98319081 52345,6950.227,96.108,573.94,570.244,0.0
55637.0,STARLINK-5062,PAYLOAD,2024-01-24 21:45:57,14.98323248,0.00031,70.0004,338.0741,273.5618,86.5187,-1.9833e-05,-3.3e-06,0.0,0 STARLINK-5062,1 55637U 23021K   24024.90691331 -.00000330  00000-0 -19833-4 0  9994,2 55637  70.0004 338.0741 0003100 273.5618  86.5187 14.98323248 52737,6950.214,96.107,574.233,569.924,0.0
55637.0,STARLINK-5062,PAYLOAD,2024-01-25 02:34:21,14.98321816,0.0003086,70.0012,337.5679,274.8562,85.2245,5.499e-05,5.63e-06,0.0,0 STARLINK-5062,1 55637U 23021K   24025.10719244  .00000563  00000-0  54990-4 0  9990,2 55637  70.0012 337.5679 0003086 274.8562  85.2245 14.98321816 52465,6950.218,96.108,574.228,569.938,0.0
55637.0,STARLINK-5062,PAYLOAD,2024-01-25 05:46:37,14.98312469,0.0002765,70.0007,337.2322,266.6026,93.4817,0.00038966,4.557e-05,0.0,0 STARLINK-5062,1 55637U 23021K   24025.24070998  .00004557  00000-0  38966-3 0  9992,2 55637  70.0007 337.2322 0002765 266.6026  93.4817 14.98312469 52783,6950.247,96.108,574.034,570.19,0.0
55637.0,STARLINK-5062,PAYLOAD,2024-01-25 21:47:57,14.98343789,0.0002436,70.0026,335.5521,240.3678,119.7239,-0.00028226,-3.46e-05,0.0,0 STARLINK-5062,1 55637U 23021K   24025.90830631 -.00003460  00000-0 -28226-3 0  9995,2 55637  70.0026 335.5521 0002436 240.3678 119.7239 14.98343789 52883,6950.15,96.106,573.708,570.322,0.0
55637.0,STARLINK-5062,PAYLOAD,2024-01-26 02:36:21,14.98341299,0.0002532,70.0024,335.0468,249.4667,110.622,-0.00030732,-3.759e-05,0.0,0 STARLINK-5062,1 55637U 23021K   24026.10858726 -.00003759  00000-0 -30732-3 0  9999,2 55637  70.0024 335.0468 0002532 249.4667 110.6220 14.98341299 52616,6950.158,96.106,573.783,570.263,0.0
55637.0,STARLINK-5062,PAYLOAD,2024-01-26 05:48:37,14.98341231,0.0002796,70.0014,334.708,268.182,91.9019,-0.00027842,-3.414e-05,0.0,0 STARLINK-5062,1 55637U 23021K   24026.24210647 -.00003414  00000-0 -27842-3 0  9994,2 55637  70.0014 334.7080 0002796 268.1820  91.9019 14.98341231 52930,6950.158,96.106,573.966,570.08,0.0
55637.0,STARLINK-5062,PAYLOAD,2024-01-27 02:38:23,14.9832585,0.0002512,70.0022,332.5222,242.7867,117.3036,-4.5277e-05,-6.33e-06,0.0,0 STARLINK-5062,1 55637U 23021K   24027.10999169 -.00000633  00000-0 -45277-4 0  9996,2 55637  70.0022 332.5222 0002512 242.7867 117.3036 14.98325850 52760,6950.206,96.107,573.817,570.325,0.0
55637.0,STARLINK-5062,PAYLOAD,2024-01-27 05:50:39,14.98326977,0.0002508,70.0022,332.1855,242.0726,118.0179,-3.0205e-05,-4.53e-06,0.0,0 STARLINK-5062,1 55637U 23021K   24027.24351087 -.00000453  00000-0 -30205-4 0  9997,2 55637  70.0022 332.1855 0002508 242.0726 118.0179 14.98326977 53083,6950.202,96.107,573.81,570.324,0.0
55637.0,STARLINK-5062,PAYLOAD,2024-01-27 21:51:59,14.98327104,0.0002586,70.0016,330.5019,248.4642,111.6241,3.0325e-05,2.69e-06,0.0,0 STARLINK-5062,1 55637U 23021K   24027.91111007  .00000269  00000-0  30325-4 0  9993,2 55637  70.0016 330.5019 0002586 248.4642 111.6241 14.98327104 53186,6950.202,96.107,573.864,570.27,0.0
55637.0,STARLINK-5062,PAYLOAD,2024-01-28 04:16:33,14.98306939,0.0002499,70.0017,329.8286,244.3091,115.781,-0.00018355,-2.281e-05,0.0,0 STARLINK-5062,1 55637U 23021K   24028.17817085 -.00002281  00000-0 -18355-3 0  9997,2 55637  70.0017 329.8286 0002499 244.3091 115.7810 14.98306939 52921,6950.264,96.108,573.866,570.392,0.0
55637.0,STARLINK-5062,PAYLOAD,2024-01-28 05:52:42,14.9830754,0.0002462,70.0014,329.6588,265.031,95.0568,-0.00017079,-2.129e-05,0.0,0 STARLINK-5062,1 55637U 23021K   24028.24493192 -.00002129  00000-0 -17079-3 0  9997,2 55637  70.0014 329.6588 0002462 265.0310  95.0568 14.98307540 53239,6950.262,96.108,573.839,570.416,0.0
55637.0,STARLINK-5062,PAYLOAD,2024-01-28 20:17:54,14.98318755,0.0003218,69.9995,328.1428,270.944,89.1351,-7.259e-05,-9.59e-06,0.0,0 STARLINK-5062,1 55637U 23021K   24028.84576713 -.00000959  00000-0 -72590-4 0  9993,2 55637  69.9995 328.1428 0003218 270.9440  89.1351 14.98318755 53021,6950.228,96.108,574.329,569.856,0.0
55637.0,STARLINK-5062,PAYLOAD,2024-01-28 21:54:02,14.98319497,0.0003316,69.9992,327.9735,273.0778,87.0001,-3.9198e-05,-5.61e-06,0.0,0 STARLINK-5062,1 55637U 23021K   24028.91252619 -.00000561  00000-0 -39198-4 0  9993,2 55637  69.9992 327.9735 0003316 273.0778  87.0001 14.98319497 53330,6950.225,96.108,574.395,569.786,0.0
55637.0,STARLINK-5062,PAYLOAD,2024-01-29 05:54:42,14.98325037,0.0002225,70.0014,327.1324,269.9672,90.1232,5.5208e-05,5.66e-06,0.0,0 STARLINK-5062,1 55637U 23021K   24029.24632289  .00000566  00000-0  55208-4 0  9998,2 55637  70.0014 327.1324 0002225 269.9672  90.1232 14.98325037 53089,6950.208,96.107,573.62,570.527,0.0
55637.0,STARLINK-5062,PAYLOAD,2024-01-30 04:20:33,14.98340529,0.0002957,69.9996,324.7755,269.098,90.984,0.00015309,1.735e-05,0.0,0 STARLINK-5062,1 55637U 23021K   24030.18094469  .00001735  00000-0  15309-3 0  9991,2 55637  69.9996 324.7755 0002957 269.0980  90.9840 14.98340529 53223,6950.16,96.106,574.08,569.97,0.0
55637.0,STARLINK-5062,PAYLOAD,2024-01-30 05:56:41,14.98340544,0.0002048,70.001,324.6074,237.7646,122.3314,0.00024705,2.857e-05,0.0,0 STARLINK-5062,1 55637U 23021K   24030.24770313  .00002857  00000-0  24705-3 0  9993,2 55637  70.0010 324.6074 0002048 237.7646 122.3314 14.98340544 53535,6950.16,96.106,573.449,570.602,0.0
55637.0,STARLINK-5062,PAYLOAD,2024-01-30 20:21:54,14.98334718,0.0002019,70.003,323.0939,239.8743,120.2216,0.00011531,1.283e-05,0.0,0 STARLINK-5062,1 55637U 23021K   24030.84854814  .00001283  00000-0  11531-3 0  9993,2 55637  70.0030 323.0939 0002019 239.8743 120.2216 14.98334718 53320,6950.178,96.107,573.447,570.64,0.0
55637.0,STARLINK-5062,PAYLOAD,2024-01-30 21:58:02,14.98334742,0.0002628,70.0006,322.9254,264.0996,95.9863,2.8733e-05,2.5e-06,0.0,0 STARLINK-5062,1 55637U 23021K   24030.91531173  .00000250  00000-0  28733-4 0  9997,2 55637  70.0006 322.9254 0002628 264.0996  95.9863 14.98334742 53634,6950.178,96.107,573.87,570.217,0.0
55637.0,STARLINK-5062,PAYLOAD,2024-01-31 04:22:35,14.98332118,0.0002211,70.0022,322.2538,237.0925,123.0022,2.6486e-05,2.23e-06,0.0,0 STARLINK-5062,1 55637U 23021K   24031.18235268  .00000223  00000-0  26486-4 0  9996,2 55637  70.0022 322.2538 0002211 237.0925 123.0022 14.98332118 53376,6950.186,96.107,573.588,570.515,0.0
55637.0,STARLINK-5062,PAYLOAD,2024-01-31 18:47:47,14.98338076,0.000214,70.0022,320.7383,242.1304,117.9639,-0.00011654,-1.483e-05,0.0,0 STARLINK-5062,1 55637U 23021K   24031.78318883 -.00001483  00000-0 -11654-3 0  9998,2 55637  70.0022 320.7383 0002140 242.1304 117.9639 14.98338076 53764,6950.168,96.106,573.52,570.546,0.0
55637.0,STARLINK-5062,PAYLOAD,2024-02-01 04:24:36,14.98333002,0.0002597,70.0011,319.7282,245.2945,114.7944,-0.00017035,-2.125e-05,0.0,0 STARLINK-5062,1 55637U 23021K   24032.18375142 -.00002125  00000-0 -17035-3 0  9997,2 55637  70.0011 319.7282 0002597 245.2945 114.7944 14.98333002 53521,6950.184,96.107,573.854,570.244,0.0
55637.0,STARLINK-5062,PAYLOAD,2024-02-02 04:26:36,14.98332498,0.0002316,70.0011,317.2032,251.1647,108.9261,9.7935e-06,2.4e-07,0.0,0 STARLINK-5062,1 55637U 23021K   24033.18514583  .00000024  00000-0  97935-5 0  9995,2 55637  70.0011 317.2032 0002316 251.1647 108.9261 14.98332498 53672,6950.185,96.107,573.66,570.441,0.0
55637.0,STARLINK-5062,PAYLOAD,2024-02-02 22:04:05,14.98326305,0.0002414,70.0006,315.3519,257.1892,102.8997,3.5346e-05,3.29e-06,0.0,0 STARLINK-5062,1 55637U 23021K   24033.91950878  .00000329  00000-0  35346-4 0  9992,2 55637  70.0006 315.3519 0002414 257.1892 102.8997 14.98326305 54087,6950.204,96.107,573.747,570.392,0.0
55637.0,STARLINK-5062,PAYLOAD,2024-02-03 04:28:37,14.98326196,0.0002414,70.0006,314.6785,258.8268,101.262,2.9655e-05,2.61e-06,0.0,0 STARLINK-5062,1 55637U 23021K   24034.18654964  .00000261  00000-0  29655-4 0  9990,2 55637  70.0006 314.6785 0002414 258.8268 101.2620 14.98326196 54128,6950.205,96.107,573.747,570.392,0.0
55637.0,STARLINK-5062,PAYLOAD,2024-02-03 18:53:50,14.98331609,0.0002455,70.0005,313.164,262.0169,98.0711,1.3602e-06,-7.7e-07,0.0,0 STARLINK-5062,1 55637U 23021K   24034.78738722 -.00000077  00000-0  13602-5 0  9993,2 55637  70.0005 313.1640 0002455 262.0169  98.0711 14.98331609 53918,6950.188,96.107,573.759,570.347,0.0
55637.0,STARLINK-5062,PAYLOAD,2024-02-03 22:06:06,14.9833207,0.0002457,70.0005,312.8269,260.6044,99.4837,4.616e-06,-3.8e-07,0.0,0 STARLINK-5062,1 55637U 23021K   24034.92090650 -.00000038  00000-0  46160-5 0  9992,2 55637  70.0005 312.8269 0002457 260.6044  99.4837 14.98332070 54232,6950.186,96.107,573.759,570.344,0.0
55637.0,STARLINK-5062,PAYLOAD,2024-02-04 04:30:38,14.98335222,0.0002379,70.0006,312.1538,260.1194,99.9697,3.6221e-05,3.39e-06,0.0,0 STARLINK-5062,1 55637U 23021K   24035.18794314  .00000339  00000-0  36221-4 0  9998,2 55637  70.0006 312.1538 0002379 260.1194  99.9697 14.98335222 54274,6950.177,96.107,573.695,570.388,0.0
